OBJECT_NAME,OBJECT_ID,EPOCH,MEAN_MOTION,ECCENTRICITY,INCLINATION,RA_OF_ASC_NODE,ARG_OF_PERICENTER,MEAN_ANOMALY,EPHEMERIS_TYPE,CLASSIFICATION_TYPE,NORAD_CAT_ID,ELEMENT_SET_NO,REV_AT_EPOCH,BSTAR,MEAN_MOTION_DOT,MEAN_MOTION_DDOT
SAR-LUPE 2,2007-030A,2026-06-28T23:02:14.476128,15.51701614,.00026345,98.1057,285.8664,177.4058,182.7206,0,U,31797,999,5876,.21798486E-3,.12868E-3,0
SAPPHIRE,2013-009C,2026-06-28T22:38:53.564064,14.35243706,.00105827,98.4264,359.1204,208.5856,151.4751,0,U,39088,999,69826,.5031772E-4,.101E-5,0
PRAETORIAN SDA_602,2025-203A,2026-06-25T21:56:40.330752,13.84278827,.00062643,81.3029,2.6841,162.2891,197.8485,0,U,65565,999,3990,.82305867E-4,.104E-5,0
PRAETORIAN SDA_603,2025-203B,2026-06-28T21:47:01.430016,13.83906614,.00100064,81.3038,359.8353,155.9616,204.2010,0,U,65566,999,4032,.13233968E-3,.159E-5,0
PRAETORIAN SDA_604,2025-203C,2026-06-28T22:25:52.122720,13.83048736,.00059135,81.3052,0.2405,159.9313,200.2077,0,U,65567,999,4030,.55074589E-4,.72E-6,0
PRAETORIAN SDA_605,2025-203D,2026-06-28T23:15:22.442400,13.83435053,.00087128,81.3018,359.8603,151.8684,208.2945,0,U,65568,999,4032,.30650591E-4,.46E-6,0
PRAETORIAN SDA_606,2025-203E,2026-06-28T22:53:10.309056,13.83198717,.00065925,81.3053,0.1051,154.6504,205.4977,0,U,65569,999,4031,.24988383E-4,.39E-6,0
PRAETORIAN SDA_607,2025-203F,2026-06-28T22:51:24.691968,13.84285762,.00093074,81.3038,359.7471,156.2069,203.9520,0,U,65570,999,4033,.18370053E-3,.217E-5,0
PRAETORIAN SDA_608,2025-203G,2026-06-28T22:24:34.987392,13.83817858,.00064207,81.3007,359.9312,159.1130,201.0290,0,U,65571,999,4031,.55639132E-4,.74E-6,0
PRAETORIAN SDA_609,2025-203H,2026-06-28T22:26:51.533088,13.84210351,.00073165,81.3051,359.9108,154.2189,205.9334,0,U,65572,999,4032,.20579046E-3,.241E-5,0
PRAETORIAN SDA_610,2025-203J,2026-06-28T21:56:00.028608,13.83768699,.0007185,81.3007,359.9086,158.8442,201.3013,0,U,65573,999,4031,.55529316E-4,.73E-6,0
PRAETORIAN SDA_611,2025-203K,2026-06-28T22:02:44.884320,13.83310463,.00059444,81.3009,0.0782,162.5758,197.5604,0,U,65574,999,4030,.12887113E-3,.153E-5,0
PRAETORIAN SDA_612,2025-203L,2026-06-28T21:26:42.637920,13.85040486,.00097773,81.3032,359.6588,155.5104,204.6519,0,U,65575,999,4033,.16935596E-3,.204E-5,0
PRAETORIAN SDA_613,2025-203M,2026-06-28T22:19:06.135168,13.82766169,.00061975,81.2999,0.0738,153.0981,207.0497,0,U,65576,999,4030,.47639245E-4,.64E-6,0
PRAETORIAN SDA_614,2025-203N,2026-06-28T22:58:21.133920,13.84778161,.00076746,81.3013,359.6806,152.5318,207.6246,0,U,65577,999,4034,.35025155E-4,.51E-6,0
PRAETORIAN SDA_615,2025-203P,2026-06-28T22:29:14.669376,13.84437480,.00094806,81.3024,359.6706,154.1222,206.0411,0,U,65578,999,4033,.26020807E-3,.303E-5,0
PRAETORIAN SDA_616,2025-203Q,2026-06-28T22:02:07.245024,13.83268943,.00058925,81.3065,0.2318,160.9726,199.1651,0,U,65579,999,4030,.17596958E-3,.205E-5,0
PRAETORIAN SDA_617,2025-203R,2026-06-28T22:34:40.314432,13.83150796,.00079071,81.3036,0.0408,152.9561,207.2009,0,U,65580,999,4031,.41341563E-4,.57E-6,0
PRAETORIAN SDA_618,2025-203S,2026-06-26T10:39:43.185312,13.84669977,.0010122,81.3021,1.9070,162.7241,197.4262,0,U,65581,999,3999,.14181E-4,.28E-6,0
PRAETORIAN SDA_619,2025-203T,2026-06-28T22:39:47.685888,13.83807097,.00087007,81.3048,359.9050,154.4290,205.7299,0,U,65582,999,4095,.16751991E-3,.197E-5,0
PRAETORIAN SDA_620,2025-203U,2026-06-28T21:38:15.550368,13.83619359,.00081297,81.3031,359.9672,150.2322,209.9299,0,U,65583,999,4031,.18483896E-3,.216E-5,0
PRAETORIAN SDA_621,2025-203V,2026-06-28T22:42:23.973120,13.83802322,.00079834,81.3021,359.8390,147.9746,212.1897,0,U,65584,999,4032,.43534271E-4,.6E-6,0
PRAETORIAN SDA_601,2025-203W,2026-06-28T22:07:51.448800,13.83169227,.00060317,81.3040,0.1715,163.6995,196.4357,0,U,65585,999,4030,.1615366E-3,.189E-5,0
VICTUS HAZE PUMA,2026-142A,2026-06-28T23:50:53.018016,15.20736349,.00209752,97.4479,77.4825,284.7322,75.1589,0,U,69646,999,146,.1805784E-3,.3925E-4,0
