SAR-LUPE 2              
1 31797U 07030A   26179.95988977  .00012868  00000+0  21798-3 0  9998
2 31797  98.1057 285.8664 0002634 177.4058 182.7206 15.51701614 58768
SAPPHIRE                
1 39088U 13009C   26179.94367551  .00000101  00000+0  50318-4 0  9998
2 39088  98.4264 359.1204 0010582 208.5856 151.4751 14.35243706698267
PRAETORIAN SDA_602      
1 65565U 25203A   26176.91435568  .00000104  00000+0  82306-4 0  9999
2 65565  81.3029   2.6841 0006264 162.2891 197.8485 13.84278827 39903
PRAETORIAN SDA_603      
1 65566U 25203B   26179.90765544  .00000159  00000+0  13234-3 0  9995
2 65566  81.3038 359.8353 0010006 155.9616 204.2010 13.83906614 40328
PRAETORIAN SDA_604      
1 65567U 25203C   26179.93463105  .00000072  00000+0  55075-4 0  9991
2 65567  81.3052   0.2405 0005913 159.9313 200.2077 13.83048736 40308
PRAETORIAN SDA_605      
1 65568U 25203D   26179.96900975  .00000046  00000+0  30651-4 0  9990
2 65568  81.3018 359.8603 0008712 151.8684 208.2945 13.83435053 40322
PRAETORIAN SDA_606      
1 65569U 25203E   26179.95359154  .00000039  00000+0  24988-4 0  9995
2 65569  81.3053   0.1051 0006592 154.6504 205.4977 13.83198717 40317
PRAETORIAN SDA_607      
1 65570U 25203F   26179.95236912  .00000217  00000+0  18370-3 0  9998
2 65570  81.3038 359.7471 0009307 156.2069 203.9520 13.84285762 40339
PRAETORIAN SDA_608      
1 65571U 25203G   26179.93373828  .00000074  00000+0  55639-4 0  9996
2 65571  81.3007 359.9312 0006420 159.1130 201.0290 13.83817858 40313
PRAETORIAN SDA_609      
1 65572U 25203H   26179.93531867  .00000241  00000+0  20579-3 0  9996
2 65572  81.3051 359.9108 0007316 154.2189 205.9334 13.84210351 40320
PRAETORIAN SDA_610      
1 65573U 25203J   26179.91388922  .00000073  00000+0  55529-4 0  9994
2 65573  81.3007 359.9086 0007185 158.8442 201.3013 13.83768699 40318
PRAETORIAN SDA_611      
1 65574U 25203K   26179.91857505  .00000153  00000+0  12887-3 0  9991
2 65574  81.3009   0.0782 0005944 162.5758 197.5604 13.83310463 40304
PRAETORIAN SDA_612      
1 65575U 25203L   26179.89354905  .00000204  00000+0  16936-3 0  9991
2 65575  81.3032 359.6588 0009777 155.5104 204.6519 13.85040486 40338
PRAETORIAN SDA_613      
1 65576U 25203M   26179.92993212  .00000064  00000+0  47639-4 0  9995
2 65576  81.2999   0.0738 0006197 153.0981 207.0497 13.82766169 40302
PRAETORIAN SDA_614      
1 65577U 25203N   26179.95718905  .00000051  00000+0  35025-4 0  9995
2 65577  81.3013 359.6806 0007674 152.5318 207.6246 13.84778161 40348
PRAETORIAN SDA_615      
1 65578U 25203P   26179.93697534  .00000303  00000+0  26021-3 0  9993
2 65578  81.3024 359.6706 0009480 154.1222 206.0411 13.84437480 40331
PRAETORIAN SDA_616      
1 65579U 25203Q   26179.91813941  .00000205  00000+0  17597-3 0  9993
2 65579  81.3065   0.2318 0005892 160.9726 199.1651 13.83268943 40302
PRAETORIAN SDA_617      
1 65580U 25203R   26179.94074438  .00000057  00000+0  41342-4 0  9999
2 65580  81.3036   0.0408 0007907 152.9561 207.2009 13.83150796 40312
PRAETORIAN SDA_618      
1 65581U 25203S   26177.44424983  .00000028  00000+0  14181-4 0  9996
2 65581  81.3021   1.9070 0010122 162.7241 197.4262 13.84669977 39999
PRAETORIAN SDA_619      
1 65582U 25203T   26179.94430192  .00000197  00000+0  16752-3 0  9995
2 65582  81.3048 359.9050 0008700 154.4290 205.7299 13.83807097 40951
PRAETORIAN SDA_620      
1 65583U 25203U   26179.90156887  .00000216  00000+0  18484-3 0  9994
2 65583  81.3031 359.9672 0008129 150.2322 209.9299 13.83619359 40317
PRAETORIAN SDA_621      
1 65584U 25203V   26179.94611080  .00000060  00000+0  43534-4 0  9992
2 65584  81.3021 359.8390 0007983 147.9746 212.1897 13.83802322 40328
PRAETORIAN SDA_601      
1 65585U 25203W   26179.92212325  .00000189  00000+0  16154-3 0  9999
2 65585  81.3040   0.1715 0006031 163.6995 196.4357 13.83169227 40304
VICTUS HAZE PUMA        
1 69646U 26142A   26179.99366919  .00003925  00000+0  18058-3 0  9996
2 69646  97.4479  77.4825 0020975 284.7322  75.1589 15.20736349  1463
